NORAD_CAT_ID,OBJECT_NAME,OBJECT_TYPE,EPOCH,MEAN_MOTION,ECCENTRICITY,INCLINATION,RA_OF_ASC_NODE,ARG_OF_PERICENTER,MEAN_ANOMALY,BSTAR,MEAN_MOTION_DOT,MEAN_MOTION_DDOT,TLE_LINE0,TLE_LINE1,TLE_LINE2,SEMIMAJOR_AXIS,PERIOD,APOGEE,PERIGEE,DECAYED
50158.0,STARLINK-3309,PAYLOAD,2024-01-25 14:49:21,15.08857478,0.000114,53.2173,134.0734,86.1019,274.0103,4.2343e-06,-2.2e-06,0.0,0 STARLINK-3309,1 50158U 21125C   24025.61761481 -.00000220  00000-0  42343-5 0  9993,2 50158  53.2173 134.0734 0001140  86.1019 274.0103 15.08857478119668,6917.827,95.436,540.481,538.903,0.0
50158.0,STARLINK-3309,PAYLOAD,2024-01-26 13:04:45,15.08863457,0.000139,53.2162,129.9135,72.4863,287.6281,-0.00016761,-2.956e-05,0.0,0 STARLINK-3309,1 50158U 21125C   24026.54496860 -.00002956  00000-0 -16761-3 0  9994,2 50158  53.2162 129.9135 0001390  72.4863 287.6281 15.08863457119803,6917.809,95.436,540.635,538.712,0.0
50158.0,STARLINK-3309,PAYLOAD,2024-01-26 16:15:31,15.08864939,0.0001942,53.2204,129.3078,64.9944,295.1249,-0.0001023,-1.917e-05,0.0,0 STARLINK-3309,1 50158U 21125C   24026.67744462 -.00001917  00000-0 -10230-3 0  9993,2 50158  53.2204 129.3078 0001942  64.9944 295.1249 15.08864939116675,6917.804,95.436,541.013,538.326,0.0
50158.0,STARLINK-3309,PAYLOAD,2024-01-27 11:20:09,15.08843383,0.0001623,53.2204,125.74,125.8273,234.287,-2.2578e-05,-6.47e-06,0.0,0 STARLINK-3309,1 50158U 21125C   24027.47232695 -.00000647  00000-0 -22578-4 0  9990,2 50158  53.2204 125.7400 0001623 125.8273 234.2870 15.08843383119949,6917.87,95.437,540.858,538.612,0.0
50158.0,STARLINK-3309,PAYLOAD,2024-01-27 16:06:18,15.08841936,0.0001924,53.2197,124.8469,133.7156,226.3996,-4.0306e-05,-9.3e-06,0.0,0 STARLINK-3309,1 50158U 21125C   24027.67104764 -.00000930  00000-0 -40306-4 0  9991,2 50158  53.2197 124.8469 0001924 133.7156 226.3996 15.08841936119973,6917.874,95.437,541.07,538.408,0.0
50158.0,STARLINK-3309,PAYLOAD,2024-01-28 12:46:19,15.08842577,0.0001655,53.2185,120.9903,79.7575,280.3604,-8.08e-05,-1.574e-05,0.0,0 STARLINK-3309,1 50158U 21125C   24028.53217311 -.00001574  00000-0 -80800-4 0  9998,2 50158  53.2185 120.9903 0001655  79.7575 280.3604 15.08842577120100,6917.873,95.437,540.882,538.593,0.0
50158.0,STARLINK-3309,PAYLOAD,2024-01-29 11:01:42,15.08847855,0.0001422,53.2178,116.8311,88.0032,272.1123,0.00010925,1.452e-05,0.0,0 STARLINK-3309,1 50158U 21125C   24029.45952385  .00001452  00000-0  10925-3 0  9990,2 50158  53.2178 116.8311 0001422  88.0032 272.1123 15.08847855117095,6917.856,95.437,540.705,538.738,0.0
50158.0,STARLINK-3309,PAYLOAD,2024-01-30 10:52:30,15.08851526,0.000178,53.2182,112.3777,95.9352,264.1843,-0.00020776,-3.594e-05,0.0,0 STARLINK-3309,1 50158U 21125C   24030.45313355 -.00003594  00000-0 -20776-3 0  9996,2 50158  53.2182 112.3777 0001780  95.9352 264.1843 15.08851526117243,6917.845,95.437,540.942,538.479,0.0
50158.0,STARLINK-3309,PAYLOAD,2024-01-31 12:18:42,15.08789603,0.0001849,53.2178,107.6185,84.0525,276.0678,0.00068786,0.00010661,0.0,0 STARLINK-3309,1 50158U 21125C   24031.51298612  .00010661  00000-0  68786-3 0  9996,2 50158  53.2178 107.6185 0001849  84.0525 276.0678 15.08789603117407,6918.034,95.441,541.179,538.62,0.0
50158.0,STARLINK-3309,PAYLOAD,2024-01-31 13:54:03,15.08848339,0.0001522,53.2177,107.3159,91.6817,268.4349,-7.9198e-05,-1.549e-05,0.0,0 STARLINK-3309,1 50158U 21125C   24031.57921186 -.00001549  00000-0 -79198-4 0  9998,2 50158  53.2177 107.3159 0001522  91.6817 268.4349 15.08848339117413,6917.855,95.437,540.773,538.667,0.0
50158.0,STARLINK-3309,PAYLOAD,2024-02-01 10:34:05,15.08835763,0.0001544,53.2178,103.4501,94.4132,265.7037,5.7415e-05,6.26e-06,0.0,0 STARLINK-3309,1 50158U 21125C   24032.44033683  .00000626  00000-0  57415-4 0  9992,2 50158  53.2178 103.4501 0001544  94.4132 265.7037 15.08835763117542,6917.893,95.438,540.826,538.69,0.0
50158.0,STARLINK-3309,PAYLOAD,2024-02-01 13:44:51,15.0884015,0.0001583,53.2183,102.8505,87.0944,273.023,9.5099e-05,1.226e-05,0.0,0 STARLINK-3309,1 50158U 21125C   24032.57281315  .00001226  00000-0  95099-4 0  9990,2 50158  53.2183 102.8505 0001583  87.0944 273.0230 15.08840150120713,6917.88,95.438,540.84,538.65,0.0
50158.0,STARLINK-3309,PAYLOAD,2024-02-02 12:00:15,15.08840957,0.0001826,53.2187,98.6827,69.837,290.2819,3.5298e-05,2.74e-06,0.0,0 STARLINK-3309,1 50158U 21125C   24033.50017652  .00000274  00000-0  35298-4 0  9992,2 50158  53.2187  98.6827 0001826  69.8370 290.2819 15.08840957117701,6917.877,95.437,541.006,538.479,0.0
50158.0,STARLINK-3309,PAYLOAD,2024-02-03 10:15:38,15.08846613,0.000135,53.2162,94.5269,87.1806,272.9341,1.0336e-05,-1.23e-06,0.0,0 STARLINK-3309,1 50158U 21125C   24034.42753306 -.00000123  00000-0  10336-4 0  9997,2 50158  53.2162  94.5269 0001350  87.1806 272.9341 15.08846613120995,6917.86,95.437,540.659,538.791,0.0
50158.0,STARLINK-3309,PAYLOAD,2024-02-04 08:31:03,15.08834974,0.0001491,53.2165,90.3639,91.0954,269.0209,8.8786e-05,1.125e-05,0.0,0 STARLINK-3309,1 50158U 21125C   24035.35489626  .00001125  00000-0  88786-4 0  9997,2 50158  53.2165  90.3639 0001491  91.0954 269.0209 15.08834974117989,6917.896,95.438,540.792,538.729,0.0
50158.0,STARLINK-3309,PAYLOAD,2024-02-05 09:57:13,15.08840677,0.0001471,53.2163,85.6052,95.9244,264.1916,1.7618e-05,-8e-08,0.0,0 STARLINK-3309,1 50158U 21125C   24036.41473541 -.00000008  00000-0  17618-4 0  9990,2 50158  53.2163  85.6052 0001471  95.9244 264.1916 15.08840677118143,6917.878,95.438,540.761,538.726,0.0
50158.0,STARLINK-3309,PAYLOAD,2024-02-06 03:26:28,15.08833866,0.0001598,53.2175,82.3338,96.1962,263.9212,1.2619e-05,-8.7e-07,0.0,0 STARLINK-3309,1 50158U 21125C   24037.14338089 -.00000087  00000-0  12619-4 0  9991,2 50158  53.2175  82.3338 0001598  96.1962 263.9212 15.08833866118257,6917.899,95.438,540.87,538.659,0.0
50158.0,STARLINK-3309,PAYLOAD,2024-02-06 09:48:00,15.08838062,0.0001661,53.2176,81.1446,96.7238,263.3943,4.6938e-05,4.59e-06,0.0,0 STARLINK-3309,1 50158U 21125C   24037.40833793  .00000459  00000-0  46938-4 0  9995,2 50158  53.2176  81.1446 0001661  96.7238 263.3943 15.08838062121441,6917.886,95.438,540.9,538.602,0.0
50158.0,STARLINK-3309,PAYLOAD,2024-02-07 03:17:15,15.08822021,0.0001762,53.2179,77.8743,105.2689,254.8498,7.8167e-05,9.56e-06,0.0,0 STARLINK-3309,1 50158U 21125C   24038.13698862  .00000956  00000-0  78167-4 0  9993,2 50158  53.2179  77.8743 0001762 105.2689 254.8498 15.08822021118404,6917.935,95.439,541.019,538.581,0.0
50158.0,STARLINK-3309,PAYLOAD,2024-02-07 09:38:48,15.08833949,0.0001682,53.2178,76.6885,106.7497,253.368,-1.7139e-05,-5.61e-06,0.0,0 STARLINK-3309,1 50158U 21125C   24038.40194724 -.00000561  00000-0 -17139-4 0  9997,2 50158  53.2178  76.6885 0001682 106.7497 253.3680 15.08833949118443,6917.899,95.438,540.927,538.6,0.0
50158.0,STARLINK-3309,PAYLOAD,2024-02-07 12:49:34,15.08836929,0.0001465,53.2174,76.0895,94.2485,265.8675,3.225e-05,2.25e-06,0.0,0 STARLINK-3309,1 50158U 21125C   24038.53442447  .00000225  00000-0  32250-4 0  9995,2 50158  53.2174  76.0895 0001465  94.2485 265.8675 15.08836929121617,6917.89,95.438,540.768,538.741,0.0
50158.0,STARLINK-3309,PAYLOAD,2024-02-07 19:11:06,15.08835364,0.0001436,53.2173,74.8997,90.3326,269.7831,4.8448e-05,4.83e-06,0.0,0 STARLINK-3309,1 50158U 21125C   24038.79938589  .00000483  00000-0  48448-4 0  9992,2 50158  53.2173  74.8997 0001436  90.3326 269.7831 15.08835364121657,6917.895,95.438,540.753,538.766,0.0
50158.0,STARLINK-3309,PAYLOAD,2024-02-08 09:29:34,15.08843409,0.000153,53.2178,72.2241,94.7831,265.3336,6.7859e-05,7.92e-06,0.0,0 STARLINK-3309,1 50158U 21125C   24039.39554232  .00000792  00000-0  67859-4 0  9998,2 50158  53.2178  72.2241 0001530  94.7831 265.3336 15.08843409118590,6917.87,95.437,540.793,538.677,0.0
50158.0,STARLINK-3309,PAYLOAD,2024-02-09 09:20:22,15.08842225,0.0001575,53.2179,67.7628,87.4884,272.6289,0.00012532,1.707e-05,0.0,0 STARLINK-3309,1 50158U 21125C   24040.38914358  .00001707  00000-0  12532-3 0  9992,2 50158  53.2179  67.7628 0001575  87.4884 272.6289 15.08842225121895,6917.874,95.437,540.828,538.649,0.0
50158.0,STARLINK-3309,PAYLOAD,2024-02-10 01:14:13,15.08838042,0.0001639,53.2185,64.7913,74.1739,285.9434,6.7809e-05,7.91e-06,0.0,0 STARLINK-3309,1 50158U 21125C   24041.05154875  .00000791  00000-0  67809-4 0  9997,2 50158  53.2185  64.7913 0001639  74.1739 285.9434 15.08838042118841,6917.886,95.438,540.885,538.618,0.0
50158.0,STARLINK-3309,PAYLOAD,2024-02-10 09:11:09,15.08841358,0.0001732,53.2177,63.3038,75.275,284.8434,1.9536e-06,-2.57e-06,0.0,0 STARLINK-3309,1 50158U 21125C   24041.38274956 -.00000257  00000-0  19536-5 0  9999,2 50158  53.2177  63.3038 0001732  75.2750 284.8434 15.08841358122043,6917.876,95.437,540.939,538.543,0.0
50158.0,STARLINK-3309,PAYLOAD,2024-02-11 07:26:33,15.08841012,0.0001617,53.218,59.1409,81.0427,279.0748,8.6725e-05,1.093e-05,0.0,0 STARLINK-3309,1 50158U 21125C   24042.31010520  .00001093  00000-0  86725-4 0  9999,2 50158  53.2180  59.1409 0001617  81.0427 279.0748 15.08841012119036,6917.877,95.437,540.861,538.624,0.0
50158.0,STARLINK-3309,PAYLOAD,2024-02-12 10:28:05,15.08848138,0.000154,53.2177,54.0829,95.2317,264.8851,8.6778e-05,1.094e-05,0.0,0 STARLINK-3309,1 50158U 21125C   24043.43617899  .00001094  00000-0  86778-4 0  9994,2 50158  53.2177  54.0829 0001540  95.2317 264.8851 15.08848138119204,6917.856,95.437,540.786,538.655,0.0
50158.0,STARLINK-3309,PAYLOAD,2024-02-13 03:57:20,15.08845104,0.0001985,53.2162,50.807,123.7885,236.3296,-2.5522e-05,-6.94e-06,0.0,0 STARLINK-3309,1 50158U 21125C   24044.16482410 -.00000694  00000-0 -25522-4 0  9991,2 50158  53.2162  50.8070 0001985 123.7885 236.3296 15.08845104119319,6917.865,95.437,541.103,538.357,0.0
50158.0,STARLINK-3309,PAYLOAD,2024-02-13 07:08:07,15.08839936,0.0001735,53.2185,50.2207,98.4785,261.6404,3.1752e-05,2.17e-06,0.0,0 STARLINK-3309,1 50158U 21125C   24044.29730760  .00000217  00000-0  31752-4 0  9990,2 50158  53.2185  50.2207 0001735  98.4785 261.6404 15.08839936122480,6917.881,95.438,540.946,538.545,0.0
